NORAD_CAT_ID,OBJECT_NAME,OBJECT_TYPE,EPOCH,MEAN_MOTION,ECCENTRICITY,INCLINATION,RA_OF_ASC_NODE,ARG_OF_PERICENTER,MEAN_ANOMALY,BSTAR,MEAN_MOTION_DOT,MEAN_MOTION_DDOT,TLE_LINE0,TLE_LINE1,TLE_LINE2,SEMIMAJOR_AXIS,PERIOD,APOGEE,PERIGEE,DECAYED
53248.0,STARLINK-4135,PAYLOAD,2023-10-29 11:02:52,15.08842234,0.0001507,53.2177,109.9218,85.4888,274.6277,9.8487e-05,1.28e-05,0.0,0 STARLINK-4135,1 53248U 22086G   23302.46032466  .00001280  00000-0  98487-4 0  9992,2 53248  53.2177 109.9218 0001507  85.4888 274.6277 15.08842234 71148,6917.874,95.437,540.781,538.696,0.0
53248.0,STARLINK-4135,PAYLOAD,2023-10-29 18:59:46,15.08868322,0.0001232,53.2169,108.4358,85.2367,274.8766,-8.3559e-05,-1.619e-05,0.0,0 STARLINK-4135,1 53248U 22086G   23302.79151336 -.00001619  00000-0 -83559-4 0  9998,2 53248  53.2169 108.4358 0001232  85.2367 274.8766 15.08868322 70693,6917.794,95.436,540.511,538.807,0.0
53248.0,STARLINK-4135,PAYLOAD,2023-10-30 04:32:06,15.08843249,0.0001637,53.218,106.6526,79.7188,280.3989,0.00016285,2.305e-05,0.0,0 STARLINK-4135,1 53248U 22086G   23303.18896445  .00002305  00000-0  16285-3 0  9991,2 53248  53.2180 106.6526 0001637  79.7188 280.3989 15.08843249 70758,6917.87,95.437,540.868,538.603,0.0
53248.0,STARLINK-4135,PAYLOAD,2023-10-30 17:15:11,15.08838544,0.0001604,53.218,104.2734,83.4577,276.6597,0.00013244,1.82e-05,0.0,0 STARLINK-4135,1 53248U 22086G   23303.71888751  .00001820  00000-0  13244-3 0  9994,2 53248  53.2180 104.2734 0001604  83.4577 276.6597 15.08838544 70835,6917.885,95.438,540.859,538.64,0.0
53248.0,STARLINK-4135,PAYLOAD,2023-10-31 13:55:12,15.08842142,0.0001426,53.2181,100.4078,82.43,277.6854,2.7184e-05,1.45e-06,0.0,0 STARLINK-4135,1 53248U 22086G   23304.58000680  .00000145  00000-0  27184-4 0  9995,2 53248  53.2181 100.4078 0001426  82.4300 277.6854 15.08842142 71466,6917.874,95.437,540.725,538.752,0.0
53248.0,STARLINK-4135,PAYLOAD,2023-10-31 17:05:58,15.08845094,0.0001433,53.2178,99.8116,91.7862,268.3295,1.2302e-05,-9.2e-07,0.0,0 STARLINK-4135,1 53248U 22086G   23304.71248454 -.00000092  00000-0  12302-4 0  9991,2 53248  53.2178  99.8116 0001433  91.7862 268.3295 15.08845094 71487,6917.865,95.437,540.721,538.738,0.0
53248.0,STARLINK-4135,PAYLOAD,2023-11-01 13:45:59,15.08837723,0.0001392,53.2173,95.9459,89.1573,270.9579,6.1709e-05,6.94e-06,0.0,0 STARLINK-4135,1 53248U 22086G   23305.57360739  .00000694  00000-0  61709-4 0  9999,2 53248  53.2173  95.9459 0001392  89.1573 270.9579 15.08837723 71612,6917.887,95.438,540.715,538.789,0.0
53248.0,STARLINK-4135,PAYLOAD,2023-11-01 20:07:31,15.08841536,0.0001373,53.2174,94.7565,87.1186,272.9963,0.00010084,1.317e-05,0.0,0 STARLINK-4135,1 53248U 22086G   23305.83856417  .00001317  00000-0  10084-3 0  9993,2 53248  53.2174  94.7565 0001373  87.1186 272.9963 15.08841536 71150,6917.876,95.437,540.691,538.791,0.0
53248.0,STARLINK-4135,PAYLOAD,2023-11-02 08:50:37,15.08833157,0.0001375,53.2171,92.3768,86.977,273.1379,4.2431e-05,3.87e-06,0.0,0 STARLINK-4135,1 53248U 22086G   23306.36849283  .00000387  00000-0  42431-4 0  9993,2 53248  53.2171  92.3768 0001375  86.9770 273.1379 15.08833157 71237,6917.901,95.438,540.718,538.815,0.0
53248.0,STARLINK-4135,PAYLOAD,2023-11-02 13:36:46,15.08837292,0.0001452,53.2179,91.4865,99.9643,260.1513,5.095e-05,5.23e-06,0.0,0 STARLINK-4135,1 53248U 22086G   23306.56720973  .00000523  00000-0  50950-4 0  9996,2 53248  53.2179  91.4865 0001452  99.9643 260.1513 15.08837292 71760,6917.889,95.438,540.758,538.749,0.0
53248.0,STARLINK-4135,PAYLOAD,2023-11-02 16:47:32,15.08841396,0.000136,53.2186,90.892,82.5373,277.5774,6.0458e-05,6.74e-06,0.0,0 STARLINK-4135,1 53248U 22086G   23306.69968730  .00000674  00000-0  60458-4 0  9996,2 53248  53.2186  90.8920 0001360  82.5373 277.5774 15.08841396 71287,6917.876,95.437,540.682,538.8,0.0
53248.0,STARLINK-4135,PAYLOAD,2023-11-03 13:27:34,15.08838575,0.000142,53.2186,87.027,99.0575,261.0578,1.3955e-05,-6.6e-07,0.0,0 STARLINK-4135,1 53248U 22086G   23307.56081256 -.00000066  00000-0  13955-4 0  9998,2 53248  53.2186  87.0270 0001420  99.0575 261.0578 15.08838575 71912,6917.885,95.438,540.732,538.767,0.0
53248.0,STARLINK-4135,PAYLOAD,2023-11-03 15:02:57,15.08839217,0.0001418,53.2186,86.7297,98.4697,261.6456,1.8342e-05,4e-08,0.0,0 STARLINK-4135,1 53248U 22086G   23307.62705211  .00000004  00000-0  18342-4 0  9995,2 53248  53.2186  86.7297 0001418  98.4697 261.6456 15.08839217 71423,6917.883,95.438,540.729,538.767,0.0
53248.0,STARLINK-4135,PAYLOAD,2023-11-04 13:18:21,15.08834244,0.00014,53.2201,82.5673,89.6756,270.4397,3.2311e-05,2.26e-06,0.0,0 STARLINK-4135,1 53248U 22086G   23308.55441758  .00000226  00000-0  32311-4 0  9999,2 53248  53.2201  82.5673 0001400  89.6756 270.4397 15.08834244 72060,6917.898,95.438,540.731,538.794,0.0
53248.0,STARLINK-4135,PAYLOAD,2023-11-04 16:29:07,15.08837248,0.0001507,53.2198,81.9734,80.1554,279.9608,6.3063e-05,7.16e-06,0.0,0 STARLINK-4135,1 53248U 22086G   23308.68689561  .00000716  00000-0  63063-4 0  9991,2 53248  53.2198  81.9734 0001507  80.1554 279.9608 15.08837248 71588,6917.889,95.438,540.796,538.711,0.0
53248.0,STARLINK-4135,PAYLOAD,2023-11-05 14:44:30,15.08861657,0.0001745,53.2189,77.8105,87.6937,272.4255,-3.1556e-05,-7.91e-06,0.0,0 STARLINK-4135,1 53248U 22086G   23309.61424242 -.00000791  00000-0 -31556-4 0  9995,2 53248  53.2189  77.8105 0001745  87.6937 272.4255 15.08861657 72224,6917.814,95.436,540.886,538.472,0.0
53248.0,STARLINK-4135,PAYLOAD,2023-11-05 16:19:53,15.08859806,0.0001423,53.2191,77.5092,83.3985,276.7169,0.00020516,2.98e-05,0.0,0 STARLINK-4135,1 53248U 22086G   23309.68047775  .00002980  00000-0  20516-3 0  9997,2 53248  53.2191  77.5092 0001423  83.3985 276.7169 15.08859806 71737,6917.82,95.436,540.669,538.7,0.0
53248.0,STARLINK-4135,PAYLOAD,2023-11-06 08:13:42,15.0889468,0.0001273,53.2183,74.5392,71.6144,288.4987,0.00081833,0.00012779,0.0,0 STARLINK-4135,1 53248U 22086G   23310.34285581  .00012779  00000-0  81833-3 0  9997,2 53248  53.2183  74.5392 0001273  71.6144 288.4987 15.08894680 71836,6917.713,95.434,540.459,538.698,0.0
53248.0,STARLINK-4135,PAYLOAD,2023-11-06 14:35:18,15.0881479,0.0001273,53.217,73.3449,90.8793,269.2345,-0.00042917,-7.107e-05,0.0,0 STARLINK-4135,1 53248U 22086G   23310.60785488 -.00007107  00000-0 -42917-3 0  9998,2 53248  53.2170  73.3449 0001273  90.8793 269.2345 15.08814790 72374,6917.957,95.439,540.703,538.942,0.0
53248.0,STARLINK-4135,PAYLOAD,2023-11-07 01:43:01,15.08816301,0.0001361,53.2162,71.2648,97.3057,262.809,-0.00032006,-5.375e-05,0.0,0 STARLINK-4135,1 53248U 22086G   23311.07153956 -.00005375  00000-0 -32006-3 0  9992,2 53248  53.2162  71.2648 0001361  97.3057 262.8090 15.08816301 71944,6917.953,95.439,540.759,538.876,0.0
53248.0,STARLINK-4135,PAYLOAD,2023-11-07 14:26:06,15.08820953,0.0001511,53.2175,68.8855,104.0103,256.1058,-0.00025059,-4.272e-05,0.0,0 STARLINK-4135,1 53248U 22086G   23311.60145991 -.00004272  00000-0 -25059-3 0  9996,2 53248  53.2175  68.8855 0001511 104.0103 256.1058 15.08820953 72528,6917.939,95.439,540.849,538.758,0.0
53248.0,STARLINK-4135,PAYLOAD,2023-11-08 11:06:06,15.08848214,0.0001513,53.2172,65.0209,95.5275,264.589,-2.5229e-05,-6.9e-06,0.0,0 STARLINK-4135,1 53248U 22086G   23312.46257558 -.00000690  00000-0 -25229-4 0  9994,2 53248  53.2172  65.0209 0001513  95.5275 264.5890 15.08848214 72159,6917.855,95.437,540.767,538.674,0.0
53248.0,STARLINK-4135,PAYLOAD,2023-11-08 14:16:53,15.08834154,0.0001341,53.2181,64.4262,83.9045,276.21,0.00063964,9.905e-05,0.0,0 STARLINK-4135,1 53248U 22086G   23312.59506460  .00009905  00000-0  63964-3 0  9990,2 53248  53.2181  64.4262 0001341  83.9045 276.2100 15.08834154 72675,6917.898,95.438,540.691,538.836,0.0
53248.0,STARLINK-4135,PAYLOAD,2023-11-09 12:32:17,15.08840204,0.0001478,53.2185,60.2649,101.1385,258.9774,0.00031429,4.718e-05,0.0,0 STARLINK-4135,1 53248U 22086G   23313.52242610  .00004718  00000-0  31429-3 0  9996,2 53248  53.2185  60.2649 0001478 101.1385 258.9774 15.08840204 72311,6917.88,95.438,540.767,538.722,0.0
53248.0,STARLINK-4135,PAYLOAD,2023-11-09 14:07:40,15.08849682,0.0001228,53.2183,59.9723,95.7261,264.3872,0.0003089,4.633e-05,0.0,0 STARLINK-4135,1 53248U 22086G   23313.58866250  .00004633  00000-0  30890-3 0  9991,2 53248  53.2183  59.9723 0001228  95.7261 264.3872 15.08849682 72826,6917.851,95.437,540.565,538.866,0.0
53248.0,STARLINK-4135,PAYLOAD,2023-11-10 12:23:04,15.08844861,0.0001614,53.22,55.8097,89.4755,270.6423,5.9337e-05,6.57e-06,0.0,0 STARLINK-4135,1 53248U 22086G   23314.51602252  .00000657  00000-0  59337-4 0  9995,2 53248  53.2200  55.8097 0001614  89.4755 270.6423 15.08844861 72468,6917.866,95.437,540.847,538.614,0.0
53248.0,STARLINK-4135,PAYLOAD,2023-11-10 13:58:27,15.08850939,0.0001742,53.2201,55.5125,107.0321,253.0862,-7.1147e-05,-1.421e-05,0.0,0 STARLINK-4135,1 53248U 22086G   23314.58225830 -.00001421  00000-0 -71147-4 0  9990,2 53248  53.2201  55.5125 0001742 107.0321 253.0862 15.08850939 72977,6917.847,95.437,540.917,538.507,0.0
53248.0,STARLINK-4135,PAYLOAD,2023-11-11 12:13:51,15.08838287,0.0001432,53.2183,51.3464,105.8315,254.2835,1.9676e-05,2.5e-07,0.0,0 STARLINK-4135,1 53248U 22086G   23315.50962713  .00000025  00000-0  19676-4 0  9997,2 53248  53.2183  51.3464 0001432 105.8315 254.2835 15.08838287 72617,6917.886,95.438,540.741,538.76,0.0
53248.0,STARLINK-4135,PAYLOAD,2023-11-11 13:49:14,15.08840518,0.0001375,53.2196,51.0485,104.4373,255.6772,5.3735e-05,5.67e-06,0.0,0 STARLINK-4135,1 53248U 22086G   23315.57586494  .00000567  00000-0  53735-4 0  9997,2 53248  53.2196  51.0485 0001375 104.4373 255.6772 15.08840518 73128,6917.879,95.438,540.695,538.793,0.0
53248.0,STARLINK-4135,PAYLOAD,2023-11-11 23:21:33,15.08844971,0.0001299,53.2188,49.2619,80.8646,279.2493,-5.9295e-06,-3.82e-06,0.0,0 STARLINK-4135,1 53248U 22086G   23315.97330199 -.00000382  00000-0 -59295-5 0  9995,2 53248  53.2188  49.2619 0001299  80.8646 279.2493 15.08844971 72681,6917.865,95.437,540.629,538.832,0.0
